SAUDISAT 1C (SO-50)     
1 27607U 02058C   26061.53568897  .00002000  00000+0  25340-3 0  9991
2 27607  64.5510  98.8982 0075068 281.9553  77.3144 14.82748605248643
SAUDISAT 2              
1 28371U 04025F   26061.55800333  .00000446  00000+0  11085-3 0  9995
2 28371  98.5492  58.8002 0023504 264.1138  95.7380 14.56608779150227
SAUDISAT 3              
1 31118U 07012B   26061.76478032  .00000467  00000+0  83710-4 0  9995
2 31118  98.1338  12.1747 0014063 201.1541 158.9086 14.71345927 12090
PISAT                   
1 41784U 16059B   26061.60389564  .00001329  00000+0  23458-3 0  9990
2 41784  97.8188  66.6531 0028974 183.2054 176.8971 14.68752297504095
FLYING LAPTOP           
1 42831U 17042G   26061.84261507  .00006380  00000+0  50945-3 0  9992
2 42831  97.4246 221.8228 0018412 117.7950 242.5143 15.00464126470509
SALSAT                  
1 46495U 20068K   26061.53547552  .00011172  00000+0  41124-3 0  9991
2 46495  97.8844  58.2509 0008864 326.6723  33.3956 15.28007427299065
