[{"OBJECT_NAME":"SAUDISAT 1C (SO-50)","OBJECT_ID":"2002-058C","EPOCH":"2026-03-02T12:51:23.527008","MEAN_MOTION":14.82748605,"ECCENTRICITY":0.0075068,"INCLINATION":64.551,"RA_OF_ASC_NODE":98.8982,"ARG_OF_PERICENTER":281.9553,"MEAN_ANOMALY":77.3144,"EPHEMERIS_TYPE":0,"CLASSIFICATION_TYPE":"U","NORAD_CAT_ID":27607,"ELEMENT_SET_NO":999,"REV_AT_EPOCH":24864,"BSTAR":0.0002534,"MEAN_MOTION_DOT":2.0e-5,"MEAN_MOTION_DDOT":0},{"OBJECT_NAME":"SAUDISAT 2","OBJECT_ID":"2004-025F","EPOCH":"2026-03-02T13:23:31.487712","MEAN_MOTION":14.56608779,"ECCENTRICITY":0.0023504,"INCLINATION":98.5492,"RA_OF_ASC_NODE":58.8002,"ARG_OF_PERICENTER":264.1138,"MEAN_ANOMALY":95.738,"EPHEMERIS_TYPE":0,"CLASSIFICATION_TYPE":"U","NORAD_CAT_ID":28371,"ELEMENT_SET_NO":999,"REV_AT_EPOCH":15022,"BSTAR":0.00011085,"MEAN_MOTION_DOT":4.46e-6,"MEAN_MOTION_DDOT":0},{"OBJECT_NAME":"SAUDISAT 3","OBJECT_ID":"2007-012B","EPOCH":"2026-03-02T18:21:17.019648","MEAN_MOTION":14.71345927,"ECCENTRICITY":0.0014063,"INCLINATION":98.1338,"RA_OF_ASC_NODE":12.1747,"ARG_OF_PERICENTER":201.1541,"MEAN_ANOMALY":158.9086,"EPHEMERIS_TYPE":0,"CLASSIFICATION_TYPE":"U","NORAD_CAT_ID":31118,"ELEMENT_SET_NO":999,"REV_AT_EPOCH":1209,"BSTAR":8.371e-5,"MEAN_MOTION_DOT":4.67e-6,"MEAN_MOTION_DDOT":0},{"OBJECT_NAME":"PISAT","OBJECT_ID":"2016-059B","EPOCH":"2026-03-02T14:29:36.583296","MEAN_MOTION":14.68752297,"ECCENTRICITY":0.0028974,"INCLINATION":97.8188,"RA_OF_ASC_NODE":66.6531,"ARG_OF_PERICENTER":183.2054,"MEAN_ANOMALY":176.8971,"EPHEMERIS_TYPE":0,"CLASSIFICATION_TYPE":"U","NORAD_CAT_ID":41784,"ELEMENT_SET_NO":999,"REV_AT_EPOCH":50409,"BSTAR":0.00023458,"MEAN_MOTION_DOT":1.329e-5,"MEAN_MOTION_DDOT":0},{"OBJECT_NAME":"FLYING LAPTOP","OBJECT_ID":"2017-042G","EPOCH":"2026-03-02T20:13:21.942048","MEAN_MOTION":15.00464126,"ECCENTRICITY":0.0018412,"INCLINATION":97.4246,"RA_OF_ASC_NODE":221.8228,"ARG_OF_PERICENTER":117.795,"MEAN_ANOMALY":242.5143,"EPHEMERIS_TYPE":0,"CLASSIFICATION_TYPE":"U","NORAD_CAT_ID":42831,"ELEMENT_SET_NO":999,"REV_AT_EPOCH":47050,"BSTAR":0.00050945,"MEAN_MOTION_DOT":6.38e-5,"MEAN_MOTION_DDOT":0},{"OBJECT_NAME":"SALSAT","OBJECT_ID":"2020-068K","EPOCH":"2026-03-02T12:51:05.084928","MEAN_MOTION":15.28007427,"ECCENTRICITY":0.0008864,"INCLINATION":97.8844,"RA_OF_ASC_NODE":58.2509,"ARG_OF_PERICENTER":326.6723,"MEAN_ANOMALY":33.3956,"EPHEMERIS_TYPE":0,"CLASSIFICATION_TYPE":"U","NORAD_CAT_ID":46495,"ELEMENT_SET_NO":999,"REV_AT_EPOCH":29906,"BSTAR":0.00041124,"MEAN_MOTION_DOT":0.00011172,"MEAN_MOTION_DDOT":0}]
